#aV2014  5 17  0  0  0.00000000     288 DD+AD WGS84 FIT  NGA
## 1792 518400.00000000   300.00000000 56794 0.0000000000000
+   31     1  2  3  4  5  7  8  9 10 11 12 13 14 15 16 17 18
+         19 20 21 22 23 24 25 26 27 28 29 30 31 32  0  0  0
+          0  0  0  0  0  0  0  0  0  0  0  0  0  0  0  0  0
+          0  0  0  0  0  0  0  0  0  0  0  0  0  0  0  0  0
+          0  0  0  0  0  0  0  0  0  0  0  0  0  0  0  0  0
++         2  2  2  2  2  2  2  2  2  2  2  2  2  2  2  2  2
++         2  2  2  2  2  2  2  2  2  2  2  2  2  2  0  0  0
++         0  0  0  0  0  0  0  0  0  0  0  0  0  0  0  0  0
++         0  0  0  0  0  0  0  0  0  0  0  0  0  0  0  0  0
++         0  0  0  0  0  0  0  0  0  0  0  0  0  0  0  0  0
%c cc cc ccc ccc cccc cccc cccc cccc ccccc ccccc ccccc ccccc
%c cc cc ccc ccc cccc cccc cccc cccc ccccc ccccc ccccc ccccc
%f  0.0000000  0.000000000  0.00000000000  0.000000000000000
%f  0.0000000  0.000000000  0.00000000000  0.000000000000000
%i    0    0    0    0      0      0      0      0         0
%i    0    0    0    0      0      0      0      0         0
/*      NGA, ST. LOUIS,MO.                                  
/*   EPHEMERIS COMPUTED FROM  1 DAYS OF DATA                
/*   EPOCHA SMOOTHER                                       
/* CCCCCCCCCCCCCCCCCCCCCCCCCCCCCCCCCCCCCCCCCCCCCCCCCCCCCCCCC
*  2014  5 17  3 15  0.00000000
P  1  22152.525206  11956.686697   8658.764400     12.458230                    
V  1   6455.281481   9246.724490 -29045.979396      0.012504                    
P  2 -10903.087608 -21272.445757  12374.617890    495.757470                    
V  2  13072.574015   7989.555712  25374.674074      0.021592                    
P  3  11128.461073  12017.708797 -21479.731124    365.772422                    
V  3 -23082.508984  12127.880384  -5157.129900      0.051232                    
P  4   2704.585269 -17032.585857  19832.343021      6.893096                    
V  4  20424.433484  16169.318515  11162.012414      0.000762                    
P  5  -3985.086535 -23270.722885 -12036.638891   -372.331615                    
V  5   5873.241922 -14423.514955  26179.894299      0.025185                    
P  7  18662.765816   -120.446776 -18957.737222    347.126892                    
V  7  16770.027401  17299.031129  16011.822848      0.042232                    
P  8  12406.232107  -7537.844299 -22115.756333     13.589896                    
V  8  18650.080118  21329.567306   2583.091470      0.001532                    
P  9   8921.915676 -12122.637970 -22411.523719    328.134266                    
V  9  20217.429272  18069.434820  -1954.883518      0.028648                    
P 10   8405.579581 -24609.758492   3788.809544   -125.853621                    
V 10   2492.785767   5996.700860  31114.071770     -0.015882                    
P 11  23397.616373  12622.323170  -2628.785284   -489.557647                    
V 11  -4478.195639   3226.566937 -29743.342069     -0.032067                    
P 12 -12471.708364  -8909.903734  21653.567401    205.423876                    
V 12   7099.166030 -26617.657922  -6625.156173      0.024734                    
P 13  26225.151262  -4376.839183   1679.680768     -0.949124                    
V 13  -1790.598879   2561.236288  31929.796632     -0.038215                    
P 14 -17719.905043  14144.995290  13928.008505    172.199617                    
V 14 -17332.505989   2195.486201 -24815.118994     -0.034086                    
P 15 -18418.251043  -7252.286660 -17897.928849   -179.917124                    
V 15  20590.727581  -9451.565741 -17122.776625     -0.021744                    
P 16   2232.446313  23134.058309 -12557.705145   -218.070056                    
V 16  -6000.613848  14903.741074  26844.581730      0.019299                    
P 17  16656.602621 -14919.064085  14412.764398    -93.763867                    
V 17  17817.322694  -2867.666712 -24212.492231     -0.030872                    
P 18 -15596.827116  12209.836638 -17087.171947    319.708023                    
V 18   2014.975095 -22879.521009 -18055.960097      0.023707                    
P 19  16123.415539   9838.130337 -18988.606284   -457.302266                    
V 19 -22847.543235   6215.167417 -15855.893922     -0.021942                    
P 20  14950.495106   6125.466117  20902.780324    190.233835                    
V 20  -4529.539186  26724.122984  -4484.868287      0.038685                    
P 21 -17216.082404   3919.879680 -19331.098703   -361.528665                    
V 21 -18481.654457 -18218.170918  11910.937804     -0.022074                    
P 22 -10654.413074  22907.250989  -7713.704845    234.775674                    
V 22  -1758.200982 -10749.566440 -28870.980529      0.027118                    
P 23  23192.801227   2538.651577  13183.749628    -21.110525                    
V 23 -15029.237772   6962.904384  24882.888322     -0.030870                    
P 24 -21536.841990 -15060.419228   4167.982751    -28.485706                    
V 24  -2118.128243  -5628.207068 -31011.614240     -0.005914                    
P 25 -15487.991682   5280.112753  20817.960674     23.917455                    
V 25   4665.629158 -26188.391925  10209.458225      0.005612                    
P 26  -6436.853839 -14044.151122 -22289.444815     76.407670                    
V 26  26014.327566  -5831.393388  -3669.853501     -0.118641                    
P 27   3830.871074  14686.182374 -21799.952830    -15.986677                    
V 27 -26321.398701   8506.613059   1162.422049      0.018729                    
P 28  12879.160370 -20347.874369 -10447.107075    355.334492                    
V 28  -1895.704489  14199.461389 -28500.227113      0.029236                    
P 29 -25924.207826   4668.054201   3235.798639    533.054427                    
V 29   3258.998744  -3523.393620  31626.543715      0.026727                    
P 30  12094.882508  -9393.697966 -21711.650340    -12.046611                    
V 30  18857.458984  20086.899388   1787.176458     -0.050600                    
P 31    758.501985  18495.434140  19075.441340    334.236028                    
V 31 -18201.127816 -15645.865521  16321.199894     -0.000679                    
P 32   7307.746596  18985.204475  17411.258886   -427.303752                    
V 32  -7852.590969  20426.994492 -18503.378450      0.081257                    
EOF
